title,address,longitude,latitude,coord_type,flag
3101182201400408,嘉松中路出华隆路南约3000米,121.22773630963,31.203728636498,1,死亡事故
3101158201500126,大川公路进周祝公路北约500米,121.68118942377,31.117616396708,1,死亡事故
3101121201400291,苏召路立跃路北约200米,121.54838226453,31.096269316572,1,死亡事故
3101155201400393,港城路出杨高北路西约300米,121.5555400329,31.357712231187,1,死亡事故
3101158201400289,康新公路进新卫路南约40米,121.64744700181,31.043728831207,1,死亡事故
3101173201400081,新绿街进新绿街新颖路西约150米,121.07366747258,30.937711178951,1,死亡事故
3101087201400024,江场西路原平路东约5米,121.43781703294,31.303404068589,1,伤人事故
3101171201400099,辰花公路出光星路西约100米,121.26178054966,31.075595019687,1,财产损失事故
3101087201400022,天目中路大统路东约1米,121.47441343797,31.25107318478,1,死亡事故
3102303201400108,协定公路协津公路西约500米,121.40345241674,31.687458676003,1,死亡事故
3101120201400169,剑川路进莲花南路东约300米,121.39926457394,31.024352390538,1,死亡事故
3101153201400321,御青路京浦路西约20米,121.57804788054,31.164683720437,1,死亡事故
3101170201400085,塔闵公路出松卫北路西约1000米,121.26878319953,31.035166099497,1,死亡事故
3101127201400173,沪闵路贵都路南约5米,121.41376719538,31.142218076929,1,死亡事故
3101128201400172,春西路申旺路南约30米,121.3814147458,31.080577684785,1,伤人事故
3101177201400118,昆港公路出新港路南约80米,121.14213216568,31.04911167282,1,死亡事故
3101151201400342,汇成路园西路东约1米,121.7281196677,31.039918866983,1,死亡事故
3101172201400093,滨湖路出新松江路南约100米,121.21805648745,31.047123502082,1,死亡事故
3101146201400140,外钱公路进墨玉北路东约300米,121.14730240077,31.361431259298,1,死亡事故
3101151201400407,东川公路上川路北约600米,121.70519761139,31.277418703727,1,死亡事故
3101124201400210,春都路都庄路东约100米,121.42281218955,31.0886692197,1,伤人事故
3101173201400087,嘉松南路沈砖公路东北约20米,121.23766998575,31.080225967434,1,死亡事故
3101129201400202,三鲁公路立跃路北约400米,121.53471142009,31.065041532741,1,伤人事故
3101126201400176,联跃路浦星公路东约0米,121.51922460256,31.051346996107,1,伤人事故
3101121201400165,沪闵路莘建路南约300米,121.41376719538,31.142218076929,1,死亡事故
3101121201400186,立跃路立民路北约0米,121.56224746096,31.110760567643,1,伤人事故
3101086201400023,共和新路出彭江路北约100米,121.45765266063,31.294617854291,1,死亡事故
3101175201400104,方泗公路进九干路南约200米,121.28028966667,31.136157000972,1,伤人事故
3101107201400041,政立路淞沪路东北约1米,121.51139960519,31.313693988145,1,死亡事故
3101151201400349,张杨北路航津路东约10米,121.59505392852,31.337690362703,1,死亡事故
3101154201400392,张东路祖冲之路东约1米,121.63921104944,31.225534899271,1,死亡事故
3101126201400167,漕宝路进龙茗路东约100米,121.40316343724,31.165939946502,1,伤人事故
3101152201400436,东高路张杨北路西约5米,121.59318476496,31.295736434998,1,死亡事故
3103013201400005,沪渝高速北侧中春路下匝道后约1000米,121.36987807493,31.121332054514,1,伤人事故
3101153201400292,五洲大道北侧申江路上匝道,121.60654252387,31.309714037745,1,死亡事故
3101160201400056,金展路林贤路南约200米,121.32424509645,30.885945815636,1,死亡事故
3101184201400392,崧泽大道出赵重公路东约1500米,121.226133464,31.181060549011,1,死亡事故
3101057201400023,北翟路出剑河路西约100米,121.35205662515,31.229478221333,1,死亡事故
3101173201400092,玉树路进兴仓路北约80米,121.21585621207,31.003973998226,1,死亡事故
3101136201400146,恒高路进江杨南路东约30米,121.51237757962,31.157909046463,1,死亡事故
3101183201400376,嘉松中路纪鹤公路西北约10米,121.2106395813,31.255227002715,1,死亡事故
3101120201400164,老沪闵路进华泾路西约200米,121.43951776152,31.141412407964,1,死亡事故
3101180201400381,新胜路进白石公路南约500米,121.10836464327,31.26325941637,1,死亡事故
3101049201400038,龙吴路银都路西北约20米,121.44251697635,31.110661407341,1,死亡事故
3101177201400106,申港路出华磊路南约500米,121.33484808114,31.049313204319,1,死亡事故
3101124201400230,吴中路出环镇西路东约100米,121.38468442155,31.180662725161,1,伤人事故
3101130201400133,泰和西路富长路东约500米,121.42740818374,31.358072690461,1,死亡事故
3101147201400104,永盛路希望路东约1米,121.25615848306,31.361524759857,1,死亡事故
3101158201400288,申江南路周祝公路(南)南约30米,121.65317828978,31.087976882476,1,死亡事故
3101152201400411,高科中路伽利略路东约1米,121.62338108818,31.204180016035,1,死亡事故
3101148201400117,宝钱公路沪宜公路北约1米,121.21732566112,31.429180650846,1,死亡事故
3101157201400423,南团公路进宣黄公路南约300米,121.76946215401,31.002490885793,1,死亡事故
3101121201400179,联友路周泾路东北约5米,121.27194583499,31.247423527141,1,死亡事故
3101097201400022,周家嘴路公平路南约00米,121.5195983758,31.270044785563,1,伤人事故
3101134201400118,其他路大华路301弄83号,121.42172311539,31.276903253723,1,死亡事故
3101171201400110,同利路进盛龙路西约500米,121.32007107767,31.114428743318,1,死亡事故
3101168201400091,卫六路进板桥西路南约100米,121.30750079582,30.71767764778,1,死亡事故
3101157201400424,栏学路科农路东约1米,121.67298910448,31.178794445608,1,死亡事故
3101133201400130,宝安公路进联杨路西约200米,121.298841349,31.339927524535,1,死亡事故
3101146201400110,金昌西路老翔黄路西约300米,121.28460553058,31.295802103049,1,死亡事故
3101174201400115,九泾路进沧泾路北约200米,121.29701333771,31.155301502212,1,伤人事故
3101165201400083,亭枫公路金石公路东约50米,121.16588823398,30.896538347912,1,死亡事故
3101123201400239,银都路景洪路西约200米,100.92731774534,22.111413013255,1,伤人事故
3101156201400316,川周公路秀浦路西约10米,121.65212444177,31.165972591315,1,死亡事故
3101142201400109,曹安公路出淞阳南路西约300米,121.26814908747,31.281353334847,1,死亡事故
3101157201400295,沪南公路康新公路东约5米,121.64921727631,31.033430979487,1,死亡事故
3101146201400094,新建一路澄浏公路南约30米,121.29487098596,31.425494666166,1,死亡事故
3101156201400305,上丰路进金丰路南约1米,121.66849272608,31.243639468218,1,死亡事故
3101180201400359,杜村公路出友爱路北约1000米,121.12888463604,31.240867358875,1,死亡事故
3101141201400113,嘉罗公路迎园中路北约10米,121.28636125433,31.405490233701,1,死亡事故
3101106201400053,营口路出佳木斯路北约150米,121.54072008414,31.300086259562,1,死亡事故
3101124201400178,七莘路润虹路东北约0米,121.33425004862,31.224837868868,1,伤人事故
3101151201400308,其他路航头镇海桥村,121.61732267238,31.01485177971,1,死亡事故
3101176201400101,文翔路辰塔路西约5米,121.18213559199,31.046472694838,1,死亡事故
3101174201400135,场东路出莘松路南约100米,121.36736178735,31.098448706196,1,伤人事故
3101181201400367,沪青平公路进高泾路东约5米,121.13295310661,31.143295660667,1,死亡事故
3101151201400365,巨峰路进申江路东约400米,121.63227290958,31.28550624513,1,死亡事故
3101174201400086,中山中路出人民南路(东)东约3米,121.23549088882,31.007653384176,1,死亡事故
3102304201400076,其他路庙镇合中村路,121.36155752374,31.743195895881,1,死亡事故
3101173201400080,荣乐东路松东路东约10米,121.27416680464,31.024523734755,1,死亡事故
3101128201400189,沪闵路新苗路北约5米,121.41376719538,31.142218076929,1,伤人事故
3101139201400138,宝祁路南侧0km约319米,121.34944035078,31.307365327012,1,死亡事故
3101137201400119,�川路联谊路路口,121.43202978682,31.349799883771,1,死亡事故
3101158201400296,靖海路进人民东路南约50米,121.77508773657,31.059298227641,1,死亡事故
3101165201400082,漕廊公路进沪杭公路西约50米,121.40256715911,30.802022745122,1,死亡事故
3101163201400081,亭枫公路新顺路西约150米,121.16588823398,30.896538347912,1,死亡事故
3101153201400379,下盐路军港公路东约1米,121.85311673156,31.081430170796,1,死亡事故
3101122201400170,浦星公路出沈杜公路南约100米,121.52214197007,30.989054381003,1,死亡事故
3101176201400116,莘砖公路同乐路北约3米,121.31075865886,31.099250839984,1,伤人事故
3101159201400297,川南奉公路进东大公路北约1000米,121.77668608258,30.986106921243,1,死亡事故
3101075201400062,古浪路进真南路东约100米,121.38437461304,31.289763403086,1,死亡事故
3101170201400084,沪昆高速出沪方向新桥入口匝道,121.21379898555,31.103920690859,1,死亡事故
3101157201400290,普庆路进德兴街东约1米,121.73206334387,31.161321743899,1,死亡事故
3101070201400090,交通路进泾惠路西约150米,121.42836544684,31.265963582008,1,死亡事故
3101109201400031,周家嘴路出许昌路西约20米,121.5195983758,31.270044785563,1,死亡事故
3101165201400089,金石公路出亭枫公路南约300米,121.20347937313,30.894901926884,1,死亡事故
3101122201400185,浦放路进鲁陈路西约1500米,121.5235993459,31.058135683274,1,伤人事故
3101156201400559,川沙路储七路东约1米,121.70186930324,31.210252137268,1,死亡事故
3102213201400016,杨高北一路出港华路南约100米,121.59134244905,31.364531572429,1,死亡事故
3101123201400195,中春路顾戴路北约5米,121.36987807493,31.121332054514,1,死亡事故
3101139201400123,�藻南路江杨南路路口,121.47387511133,31.334171552791,1,伤人事故
3101170201400142,泗凤公路新家园路东约1米,121.25394294188,31.116747989293,1,伤人事故
3101159201400306,巨峰路进申江路东约10米,121.63227290958,31.28550624513,1,死亡事故
3101151201400371,上丰路进达丰路北约100米,121.66849272608,31.243639468218,1,死亡事故
3101143201400124,沪宜公路嘉安公路(西)南约1米,121.21820274955,31.356180996405,1,死亡事故
3101138201400171,宝安公路东侧0km约2165米,121.298841349,31.339927524535,1,死亡事故
3101157201400324,海霞路进川南奉公路东约80米,121.77028927869,31.061623175504,1,死亡事故
3101154201400339,芦五公路妙香路东约5米,121.8007496732,30.870264068705,1,死亡事故
3101150201400388,周祝公路进南六公路西约50米,121.68118942377,31.117616396708,1,死亡事故
3101152201400328,上海绕城高速南侧上海绕城高速龙东大道南向东下匝道前约50米,121.74469256085,31.236731458632,1,死亡事故
3101126201400191,江月路浦星公路北约0米,121.52398254956,31.090776974862,1,死亡事故
3101178201400107,光星路茸平路南约5米,121.24784302077,31.059651964628,1,死亡事故
3101179201400091,叶新公路进许村公路西约500米,121.1922430552,30.941933114626,1,死亡事故
3101163201400059,亭枫公路兴豪路东约500米,121.16588823398,30.896538347912,1,死亡事故
3101125201400269,金都路春西路西约10米,121.42704931787,31.094783796244,1,死亡事故
3102235201400006,富特中路新灵路北约00米,121.61283740423,31.332478117465,1,死亡事故
3103013201400008,内环高架外侧NW0937约5米,121.29334879021,31.11478735724,1,伤人事故
3102301201400090,港沿公路草港公路东约200米,121.57746468084,31.622725551125,1,死亡事故
3101127201400197,沪青平公路七莘路南约5米,121.12689847887,31.144389964241,1,伤人事故
3101122201400240,虹梅南路出元江路北约150米,121.43894086074,31.106950867134,1,死亡事故
3101138201400183,宝杨路淞宝路路口,121.5015936744,31.406843246996,1,死亡事故
3102305201400091,陈海公路出前竖公路北约10米,121.60783377606,31.61372083139,1,死亡事故
3101129201400282,沪青平公路申昆路西北约10米,121.33174135082,31.197646780631,1,伤人事故
3101152201400332,拱极东路盐大路东约1米,121.85112602097,31.061862436008,1,死亡事故
3101182201400465,崧泽大道外青松公路东约5米,121.226133464,31.181060549011,1,死亡事故
3103014201400006,中环高架内侧ZN0906约0米,121.29308405958,31.114777386686,1,伤人事故
3101174201400117,嘉松南路泗陈公路北约10米,121.23766998575,31.080225967434,1,伤人事故
3101178201400127,松东路进环城路北约150米,121.26233344143,31.022526047762,1,死亡事故
3101121201400224,陈行公路浦星公路北约0米,121.51394110641,31.101384746455,1,伤人事故
3101162201400076,金廊公路朱吕公路南约3000米,121.19080591909,30.856081123506,1,死亡事故
3101124201400253,沈杜公路浦星公路东约0米,121.5599287431,31.083032867999,1,死亡事故
3101171201400103,香闵路进香车路南约20米,121.30012624837,31.010952048358,1,死亡事故
3101165201400090,漕廊公路东贤路东约10米,121.31110155824,30.801830215806,1,死亡事故
3101188201400370,久业路出北青公路北约100米,121.11979077585,31.200716502592,1,死亡事故
3101150201400311,妙境路进青厦路南约30米,121.69883241617,31.192077062679,1,死亡事故
3101153201400373,上川路华东路东北约15米,121.66716477721,31.283241387621,1,死亡事故
3101123201400194,沪闵路北松公路南约50米,121.41376719538,31.142218076929,1,死亡事故
3101159201400463,川周公路平川路南约20米,104.94560896536,36.690350490926,1,死亡事故
3101019201400019,打浦路进斜土路北约100米,121.47871907287,31.204247389913,1,死亡事故
3101147201400116,嘉行公路新建一路北约1米,121.25621058209,31.445409164648,1,死亡事故
3101209201400105,奉炮公路东侧2km约200米,121.52909134594,30.844040572137,1,死亡事故
3101040201400050,宛平南路出斜土路南约200米,121.45704710929,31.191605657173,1,伤人事故
3101201201400091,新四平公路进川南奉公路北约500米,121.73660827568,30.952540626307,1,死亡事故
3101142201400150,金沙江西路金园一路西约1米,121.31228698734,31.247473008329,1,死亡事故
3102304201400118,草港公路出陈��肺髟�0米,121.57746468084,31.622725551125,1,死亡事故
3101156201400318,川沙路出上川路南约20米,121.70186930324,31.210252137268,1,死亡事故
3101158201400375,申江路出锦绣东路北约200米,121.63177878945,31.241552299289,1,死亡事故
3101131201400161,瑞丰路进丰翔路北约400米,121.38275542006,31.318691555232,1,死亡事故
3101097201400033,广粤路进广灵四路北约200米,114.16170176527,39.76899447952,1,伤人事故
3101152201400314,申江南路进古丹路北约500米,121.65317828978,31.087976882476,1,死亡事故
3101127201400201,龙吴路出北吴路北约100米,121.46096180882,31.114918185195,1,死亡事故
3101201201400096,新四平公路进川南奉公路南约2米,121.73660827568,30.952540626307,1,死亡事故
3101180201400464,新府中路进华志路南约1000米,121.23888071563,31.2358506711,1,死亡事故
3101157201400387,东三里桥路南码头路东约1米,121.52727000457,31.201857995081,1,死亡事故
3101143201400126,嘉罗公路施曹公路东约500米,121.28636125433,31.405490233701,1,死亡事故
3101129201400255,立跃路立民路西约0米,121.56224746096,31.110760567643,1,死亡事故
3101148201400120,嘉安公路嘉松北路西约300米,121.21820274955,31.356180996405,1,死亡事故
3101138201400167,水产路铁山路路口,121.46934178113,31.380004365001,1,死亡事故
3101124201400204,昆阳路出江川路北约300米,121.37261971502,31.024839538314,1,伤人事故
3101075201400087,大渡河路怒江北路北约0米,121.40312661031,31.247586855505,1,死亡事故
3101205201400104,上塑路进沿钱路东约800米,121.57765779047,30.924028054887,1,死亡事故
3101124201400237,西环路进闵松路南约300米,121.37246829754,31.114545768549,1,死亡事故
3101152201400495,同顺大道茂祥路东约5米,121.8689141005,30.89246958473,1,死亡事故
3101178201400089,袜子弄出中山东路北约150米,121.26781405724,31.013529369117,1,死亡事故
3101096201400019,周家嘴路新建路西约00米,121.5195983758,31.270044785563,1,伤人事故
3101049201400048,衡山路余庆路东约5米,121.44967779267,31.206668422752,1,死亡事故
3101070201400066,真南路出红柳路东约50米,121.37177940771,31.287175348079,1,死亡事故
3102301201400106,草港公路建设公路西约500米,121.46106369553,31.66306631169,1,死亡事故
3101014201400022,中山南路会馆弄西约0米,121.51038262185,31.216484699982,1,死亡事故
3101170201400126,山房公路东侧2km约100米,121.27070696749,30.917891488537,1,死亡事故
3101208201400095,四平公路东侧2km约400米,121.7371852079,30.909587559907,1,死亡事故
3101125201400217,纪翟路出北青公路北约200米,121.28720251564,31.228872104318,1,伤人事故
3101045201400046,柳州路出宜山路北约150米,121.43144456055,31.173852911784,1,死亡事故
3101153201400453,顾唐路上丰路东约1米,121.67058604921,31.233760864975,1,死亡事故
3101121201400214,莲花南路向阳路北约20米,121.43259484165,31.081472209725,1,伤人事故
3101206201400086,大叶公路东侧41km约100米,121.59692514022,30.985723321869,1,死亡事故
3101172201400109,昆港公路进佘天昆公路南约200米,121.14213216568,31.04911167282,1,死亡事故
3101127201400225,剑川路虹梅南路东约1米,121.39926457394,31.024352390538,1,死亡事故
3101159201400338,高科东路顾唐路东约1米,121.73570263012,31.231348319577,1,死亡事故
3101180201400441,漕盈公路清河湾路(南)南约5米,121.10778030003,31.172602945153,1,死亡事故
3101122201400223,莲花南路出东川路南约500米,121.43259484165,31.081472209725,1,死亡事故
3101151201400312,申江南路川周公路南约5米,121.65212444177,31.165972591315,1,死亡事故
3101138201400120,沪太公路月罗公路路口,121.35035166106,31.411319343562,1,死亡事故
3101175201400134,大叶公路进车亭公路东约2700米,121.32341834726,30.966879506562,1,死亡事故
3101159201400394,外环高速西侧外环高速内侧长清路下匝道前约20米,121.46288401284,31.132169062864,1,死亡事故
3101177201400111,佘北公路桃源路北约80米,121.20171942016,31.136245314463,1,死亡事故
3101087201400029,西藏北路进南山路南约10米,121.47507827029,31.260838120827,1,伤人事故
3101135201400137,殷高西路高境路西约1米,121.48379577101,31.326785451327,1,死亡事故
3101201201400136,新四平公路海杰路东约200米,121.73660827568,30.952540626307,1,死亡事故
3101151201400505,杨高北路进胶东路北约80米,121.61092404224,31.315188632619,1,死亡事故
3101044201400051,肇嘉浜路大木桥路西约20米,121.45851480934,31.206563691579,1,死亡事故
3101188201400394,青赵公路出曙光路北约200米,121.09721445128,31.221209445259,1,死亡事故
3101158201400364,张杨北路航津路东约1米,121.59505392852,31.337690362703,1,死亡事故
3101141201400121,伊宁路永盛路西约100米,121.23760582787,31.336962047249,1,死亡事故
3101160201400075,金张公路进建乐路南约10米,121.22196724971,30.836736045749,1,死亡事故
3101157201400352,老芦公路两港大道西北约5米,121.8925157348,30.920590314338,1,死亡事故
3102303201400119,三沙洪路出人民路北约30米,121.39607895713,31.641655497531,1,死亡事故
3101146201400111,嘉安公路回城西路南约10米,121.21820274955,31.356180996405,1,死亡事故
3101206201400092,团青公路奉村路东约2米,121.7258778385,30.947604113482,1,死亡事故
3101149201400133,宝安公路嘉松北路西约5米,121.298841349,31.339927524535,1,死亡事故
3101080201400025,恒丰路天目西路北约1米,121.46148860033,31.250279884941,1,伤人事故
3101155201400329,华夏高架路东侧BWP0280约1米,121.67403085411,31.201739541562,1,死亡事故
3101156201400358,沪南公路上南路东约20米,121.64921727631,31.033430979487,1,死亡事故
3101129201400260,七莘路华茂路北约100米,121.34848343353,31.172391216909,1,伤人事故
3101124201400256,剑川路老中春路北约2米,121.39926457394,31.024352390538,1,伤人事故
3101178201400136,文翔路进辰塔路西约300米,121.18213559199,31.046472694838,1,死亡事故
3101150201400354,浦东北路大同路西北约10米,121.58433176743,31.347750052283,1,死亡事故
3101125201400188,剑川路出金平路西约10米,121.39926457394,31.024352390538,1,死亡事故
3101158201400330,老芦公路进三三公路南约100米,121.86496866095,30.908914638838,1,死亡事故
3101043201400057,沪闵路虹梅路东北约10米,121.41081125732,31.164838239581,1,死亡事故
3101159201400474,华东路进华夏东路北约600米,121.67837296291,31.242158023862,1,死亡事故
3101156201400307,华夏中路金科路东约1米,121.62644740014,31.186470740366,1,死亡事故
3101127201400249,莲花南路银都路北约300米,121.43259484165,31.081472209725,1,死亡事故
3101123201400187,中春路进黎安路南约1000米,121.36987807493,31.121332054514,1,死亡事故
3101134201400153,富锦路出同济路西约500米,121.39507487255,31.396027814705,1,死亡事故
3101153201400396,沪城环路出大学城共享区道路北约200米,121.91339635321,30.886080358435,1,死亡事故
3101158201400386,世纪大道进东方路西约100米,121.53047886594,31.236379902815,1,死亡事故
3101170201400138,叶新公路进文工路东约50米,121.1922430552,30.941933114626,1,死亡事故
3101125201400220,沪闵路元江路北约120米,121.41376719538,31.142218076929,1,伤人事故
3101171201400123,张庄公路塔闵公路北约3000米,121.14920145275,30.994484702366,1,死亡事故
3101048201400065,罗秀路进虹梅南路(西)东约60米,121.43641810177,31.137137540963,1,死亡事故
3101144201400139,宝钱公路嘉唐公路东约2000米,121.21732566112,31.429180650846,1,死亡事故
3101183201400524,华徐公路进盈港东路南约200米,121.26699219663,31.214038186738,1,死亡事故
3101157201400533,申江路进高科中路北约50米,121.62338108818,31.204180016035,1,死亡事故
3101071201400072,光复西路进大渡河路(西)东约60米,121.40312661031,31.247586855505,1,伤人事故
3101129201400198,陈行公路苏召路西约0米,121.51394110641,31.101384746455,1,伤人事故
3102211201400012,东海大桥进沪K11约0米,121.92353988249,30.858354330132,1,伤人事故
3101109201400054,包头路进嫩江路北约230米,121.54501616916,31.323417752513,1,死亡事故
3101084201400026,老沪太路进沪太路东约100米,121.45241194718,31.275913295653,1,伤人事故
3101178201400114,莘松路场东路西约5米,121.36516724585,31.105826381801,1,伤人事故
3102250201400007,北进场路浦东机场北立交东约0米,121.81049994857,31.155341598993,1,死亡事故
3101156201400409,国展路进云台路东约70米,121.49549198632,31.186631295049,1,死亡事故
3101067201400024,余姚路延平路南约3米,121.44175802946,31.240328434233,1,伤人事故
3101128201400212,宜山路进古美路东约60米,121.42350741962,31.180816639243,1,伤人事故
3101174201400129,人民北路出辰花路南约150米,121.2279521428,31.063420464936,1,死亡事故
3101136201400143,友谊路进江杨北路西约1958米,121.42034951194,31.398090908842,1,死亡事故
3101127201400216,北松公路进中青路东约200米,121.34881972498,31.020412597207,1,伤人事故
3101130201400134,共康东路岭南路路口,121.46208858217,31.32894931465,1,死亡事故
3101154201400518,金葵路出金粤路东约150米,121.63865283521,31.244859751291,1,死亡事故
3101134201400141,双城路进宝东路西约200米,121.50131969212,31.396616654393,1,死亡事故
3101187201400461,前云路出沪青平公路南约1600米,121.27486717751,31.1533678379,1,死亡事故
3101151201400510,上海绕城高速外侧48.5km约20米,121.48789948569,31.249161710015,1,死亡事故
3101159201400416,高科东路出华东路东约800米,121.66564973018,31.220602364299,1,死亡事故
3102305201400079,向堡公路进合五公路东约400米,121.69554412394,31.523191954441,1,死亡事故
3101145201400093,浏翔公路宝钱公路东约1米,121.30071100214,31.42332615326,1,死亡事故
3101175201400105,沈砖公路出城隆路东约300米,121.26621870618,31.097799089858,1,死亡事故
3101054201400026,中山西路虹桥路东北约15米,121.42073752961,31.204520283811,1,死亡事故
3101188201400451,纪鹤公路进宝丰路东约10米,121.2106395813,31.255227002715,1,死亡事故
3101136201400152,长江路进军工路西约50米,121.49877562084,31.355760609932,1,死亡事故
3101124201400292,元江路龙吴路西北约0米,121.41428137917,31.05715286282,1,伤人事故
3101055201400032,古北路延安西路西南约20米,121.40496275216,31.204761003361,1,死亡事故
3101124201400182,林海公路东佳路南约3000米,121.57611055265,30.930233742508,1,伤人事故
3101135201400199,虎林路进呼兰路南约200米,121.4646100934,31.342755541292,1,死亡事故
3101083201400039,共和新路柳营路北约5米,121.45765266063,31.294617854291,1,伤人事故
3101079201400083,凯旋北路进盘湾里西约50米,121.43546436003,31.252259654778,1,死亡事故
3101157201400395,沪南公路进航南公路北约400米,121.64921727631,31.033430979487,1,死亡事故
3101019201400031,金陵西路淡水路东约8米,121.47886964145,31.229660475497,1,死亡事故
3101126201400218,三鲁公路进东方一路北约300米,121.50084362792,31.306937532909,1,伤人事故
3101128201400228,航南路进航东路西约20米,121.35829966879,31.173610131942,1,伤人事故
3101126201400243,古美路平南路北约0米,121.41019243711,31.153968722767,1,死亡事故
3101081201400033,共和新路进汾西路南约10米,121.45765266063,31.294617854291,1,死亡事故
3101128201400286,沪青平公路华翔路西北约15米,121.31044805805,31.207424482076,1,伤人事故
3101124201400177,七莘路进中谊路南约200米,121.34848343353,31.172391216909,1,死亡事故
3101121201400246,北松公路出中春路东约400米,121.34881972498,31.020412597207,1,伤人事故
3101153201400367,浦东南路进洪山路东约1米,121.52340985284,31.215969511482,1,死亡事故
3101051201500010,遵义路进天山路北约80米,121.41425163717,31.216778817589,1,死亡事故
3101081201400038,保德路阳曲路东约1米,121.45879084875,31.32213826831,1,死亡事故
3101042201400073,漕溪北路蒲汇塘路南约30米,121.44365649755,31.195397798637,1,伤人事故
3101174201400095,叶兴公路出叶政路南约2KM,121.3165797109,30.93887259498,1,死亡事故
3101121201400265,莘建东路出广贤路西约50米,121.39269785197,31.118838141064,1,伤人事故
3101019201400023,徐家汇路顺昌路西约0米,121.47889980027,31.214326933025,1,死亡事故
3101170201400128,古楼公路出刘五公路西约10米,121.25814314715,31.111176038808,1,伤人事故
3101151201400487,两港大道(南北)出沪南公路南约500米,121.64921727631,31.033430979487,1,死亡事故
3101180201400382,盈淀路进青赵公路西约80米,121.08081766733,31.182698017136,1,死亡事故
3101140201400131,京沪高速公路（上海段）往南京方向1211KM+800M,121.38625419426,31.254738485566,1,死亡事故
3101127201400200,中春路沪松公路西约5米,121.36987807493,31.121332054514,1,死亡事故
3101152201400350,上海绕城高速内侧50.3km约30米,121.48789948569,31.249161710015,1,死亡事故
3101161201500009,朱吕公路进朱平公路东约1米,121.15423046164,30.810017538393,1,死亡事故
3101078201400082,桃浦路真光路西约2米,121.39595273712,31.265527736622,1,死亡事故
3101152201400413,沪南公路建豪路东约20米,121.64921727631,31.033430979487,1,死亡事故
3101123201400303,召泰路出鲁南路南约10米,121.55768532839,31.027617381382,1,死亡事故
3101136201400149,沪太路联白路东约1米,121.42945269564,31.288795980563,1,伤人事故
3101041201400044,虹漕路进漕宝路南约300米,121.4159832504,31.179075593783,1,死亡事故
3101078201400077,桃浦路进双河路西约50米,121.39595273712,31.265527736622,1,死亡事故
3101204201400103,泰青公路东侧3km约200米,121.57584087236,30.962239210845,1,死亡事故
3101186201400463,沪青平公路出嘉松中路西约30米,121.13295310661,31.143295660667,1,死亡事故
3101171201400184,沪松公路涞亭南路南约20米,121.286128171,31.115674446006,1,伤人事故
3101100201400055,军工路港水路北约1米,121.5516330552,31.326931272967,1,死亡事故
3101173201400094,古楼公路出横港公路西约250米,121.25814314715,31.111176038808,1,伤人事故
3101129201400174,莲花南路澄江路东约5米,121.43259484165,31.081472209725,1,死亡事故
3101143201500002,宝钱公路安新路南约1米,121.21732566112,31.429180650846,1,死亡事故
3101129201400252,中春路光中路北约00米,121.36987807493,31.121332054514,1,伤人事故
3101184201400507,陈章路出华重公路北约400米,121.240475746,31.225519630827,1,死亡事故
3101067201400032,长乐路襄阳北路西约7米,121.462373725,31.225998265526,1,死亡事故
3101178201400113,北松公路出李高路西约50米,121.34881972498,31.020412597207,1,死亡事故
3101133201400129,沪太公路曹新公路东约1米,121.34287028711,31.42179094487,1,伤人事故
3101164201400088,亭枫公路松金公路东约10米,121.16588823398,30.896538347912,1,死亡事故
3101129201400231,中谊路出七莘路西约70米,121.36378358498,31.146595183312,1,伤人事故
3101089201400037,共和新路洛川东路南约1米,121.45765266063,31.294617854291,1,死亡事故
3101017201400027,肇嘉浜路进瑞金南路西约30米,121.45851480934,31.206563691579,1,死亡事故
3101134201400170,城银路园康路东约1米,121.35416297012,31.320392536038,1,死亡事故
3101177201400137,泗陈公路方泗公路北约5米,121.24235651656,31.120546435476,1,死亡事故
3101178201400119,莘松路进场西路西约60米,121.36516724585,31.105826381801,1,伤人事故
3101187201400489,嘉松中路华志路北约5米,121.22773630963,31.203728636498,1,死亡事故
3101135201400135,潘泾路进宝安公路南约500米,121.3890589987,31.401645087597,1,死亡事故
3101181201400448,新胜路出友爱路北约1000米,121.10848250275,31.206606578243,1,死亡事故
3101130201400128,月罗公路抚远路东约1米,121.38641646955,31.423061074741,1,死亡事故
3101151201400366,大川公路进拱为路北约500米,121.74181840003,31.072753125437,1,死亡事故
3101120201400209,浦星公路联跃路东约0米,121.52214197007,30.989054381003,1,死亡事故
3101178201400097,泗陈公路进横港公路西约300米,121.24235651656,31.120546435476,1,伤人事故
3101122201400211,纪翟路北翟支路东北约5米,121.30414832864,31.211384005786,1,死亡事故
3101207201400137,浦卫公路奉庄公路东约1米,121.43192210425,30.875179078551,1,死亡事故
3101011201400021,复兴东路出大夫坊东约30米,121.50282986225,31.226120829721,1,伤人事故
3101092201400026,宝山路海伦西路南约00米,121.48416823093,31.263809171137,1,伤人事故
3101148201400130,城中路城中街西约1米,121.25368956852,31.389155534428,1,死亡事故
3101044201400058,百色路龙川北路西约5米,121.44417487103,31.148671089894,1,死亡事故
3101101201400026,国顺东路出双阳北路东约700米,121.53069903612,31.299155757446,1,死亡事故
3101132201400124,二热一路二热五路北约15米,121.44082170856,31.432270417531,1,伤人事故
3101173201400139,叶新公路出中南路东约300米,121.1922430552,30.941933114626,1,死亡事故
3101170201400112,大叶公路进车亭公路东约1000米,121.32341834726,30.966879506562,1,死亡事故
3101170201400098,沪松公路进沪亭北路东约200米,121.286128171,31.115674446006,1,伤人事故
3101152201400355,港城路出浦东北路西约1000米,121.5555400329,31.357712231187,1,死亡事故
3101174201400122,新车公路三浜路东北约10米,121.30375603414,31.035543883524,1,伤人事故
3101134201400156,宝杨路江杨北路(东)东约1米,121.47302403872,31.395343023417,1,死亡事故
3101145201400157,胜辛北路汇荣路北约1米,121.21090915829,31.417107761388,1,死亡事故
3101175201400141,沪昆高速出沪方向新浜入口匝道,121.17583785323,31.141790538707,1,死亡事故
3101170201400188,新松江路出三新北路东约500米,121.21317659099,31.045066673201,1,伤人事故
3101179201400130,新松江路进西林北路西约100米,121.21317659099,31.045066673201,1,死亡事故
3101142201400132,百安公路园耀路东约1米,121.18240056337,31.35853556089,1,死亡事故
3101168201400093,沈海高速西侧亭卫公路出口,121.35893266875,30.818908314705,1,死亡事故
3101017201400018,打浦路隧道中山南一路南约200米,91.750643874412,29.229026931718,1,伤人事故
3101130201400190,水产路进铁力路东约100米,121.48740129804,31.385163974754,1,死亡事故
3101151201400446,华夏中路张江路东约1米,121.62644740014,31.186470740366,1,死亡事故
3101175201400140,长石公路进甘德公路(东)南约200米,100.1478423084,34.021807573602,1,死亡事故
3101177201400156,车亭公路进同建公路南约500米,121.32341834726,30.966879506562,1,死亡事故
3101166201500007,沈海高速东侧亭卫公路入口前约20米,121.35893266875,30.818908314705,1,死亡事故
3101078201400095,真南路出真北路西约50米,121.37177940771,31.287175348079,1,死亡事故
3101158201400472,内环高架外侧浦东内环高架内圈锦绣下匝道前约300米,121.29334879021,31.11478735724,1,死亡事故
3101074201400088,中山北路光新路东约5米,121.44694099534,31.262035092774,1,伤人事故
3101044201400052,漕溪北路出南丹东路约5米,121.44790646266,31.196020115717,1,伤人事故
3101089201400041,中兴路共和新路北约1米,121.47273918694,31.258632534726,1,死亡事故
3101122201400293,三鲁公路沈杜公路北约30米,121.53471142009,31.065041532741,1,伤人事故
3101047201400086,桂林路进吴中路南约250米,121.42436269989,31.175942499018,1,死亡事故
3101094201400036,瑞虹路出天镇路北约50米,121.50565992256,31.2689747973,1,死亡事故
3101137201400121,富联路进宝安公路北约60米,121.41391838918,31.368293609511,1,死亡事故
3101136201400136,长江西路进郁江巷路西约500米,121.4655351774,31.344880655477,1,伤人事故
3101171201400149,泗陈公路进沪松公路西约100米,121.24235651656,31.120546435476,1,死亡事故
3101154201400537,浦东北路航津路北约1米,121.58179258833,31.334224068718,1,死亡事故
3101043201400045,华泾路出位育路西约50米,121.45455259933,31.125135569773,1,死亡事故
3101126201400248,北青公路华翔路西北约5米,121.31044805805,31.207424482076,1,伤人事故
3101133201400204,友谊路铁力路路口,121.48517378873,31.372124221482,1,伤人事故
3101129201400215,中春路颛盛路北约30米,121.36987807493,31.121332054514,1,伤人事故
3101157201400370,古棕路出美人蕉路西约200米,121.91923103884,30.885654617528,1,死亡事故
3101133201400192,南大路出制革路西约10米,121.39020577282,31.30579763068,1,伤人事故
3101123201400222,联友路出纪高路北约200米,121.27507421717,31.235165258898,1,伤人事故
3101120201400250,吴中路合川路东约0米,121.38468442155,31.180662725161,1,死亡事故
3101176201400151,大叶公路车亭公路东约5米,121.32341834726,30.966879506562,1,死亡事故
3101101201400032,中原路翔殷路北约200米,121.53844595816,31.321746252433,1,死亡事故
3101129201400300,联友路纪高路西北约3米,121.27778573798,31.244110073946,1,伤人事故
3101078201400060,真光路出梅川路南约150米,121.39060209713,31.254595783386,1,死亡事故
3101152201400403,卫行路出华夏西路南约360米,121.58821287393,31.16999637575,1,死亡事故
3101167201400101,金廊公路进亭枫公路南约1000米,121.19080591909,30.856081123506,1,死亡事故
3102306201400114,合五公路进北沿公路南约1100米,121.71307859025,31.583798873477,1,死亡事故
3102309201400124,翠竹路进佘山岛路东约200米,121.43376988544,31.631616753873,1,死亡事故
3101167201400132,松金公路亭枫公路东南约3米,121.24163640612,30.929048650339,1,死亡事故
3101175201500017,昆港公路出光华路南约100米,121.14213216568,31.04911167282,1,伤人事故
3101152201400579,川沙路迎宾高速北侧川沙路上匝道北约1米,121.70186930324,31.210252137268,1,死亡事故
3101177201400164,叶新公路进松金公路东约800米,121.1922430552,30.941933114626,1,死亡事故
3101157201400565,榕桥路金京路东约2米,121.63727695097,31.272748069782,1,死亡事故
3101176201400187,昆港公路出佘天昆公路南约300米,121.14213216568,31.04911167282,1,伤人事故
3101070201400091,曹杨路出固川路北约80米,121.4200690924,31.246581806373,1,死亡事故
3102234201400005,华申路富特西一路东约00米,121.60588628565,31.345725520959,1,死亡事故
3101125201400299,虹梅路出吴中路南约50米,121.41081125732,31.164838239581,1,伤人事故
3101121201400285,浦星公路永南路北约0米,121.52214197007,30.989054381003,1,伤人事故
3101159201500040,东亭路进晚霞路南约300米,121.75896619703,31.181393531713,1,死亡事故
3101120201400226,江川路进昆阳路西约1000米,121.38502094296,31.00164166744,1,死亡事故
3101159201400410,杨高北路东陆路东约10米,121.61092404224,31.315188632619,1,死亡事故
3101127201400295,江川路菱川路东约0米,121.38502094296,31.00164166744,1,伤人事故
3101098201400028,周家嘴路进通州路东约50米,121.5195983758,31.270044785563,1,伤人事故
3101121201400308,江川路出瑞丽路西约150米,121.38502094296,31.00164166744,1,伤人事故
3101154201400465,锦绣路进高青路南约150米,117.82824157972,37.171377591723,1,死亡事故
3101121201400271,三鲁公路东方一路北约10米,121.50084362792,31.306937532909,1,伤人事故
3101209201400186,叶庄公路东侧1km约200米,121.39034256768,30.902742802408,1,死亡事故
3101152201500033,川桥路金港路东约1米,121.61984424559,31.251298807471,1,死亡事故
3101171201500006,玉树路出松汇西路南约100米,121.41312978474,30.946461703535,1,伤人事故
3101149201400159,博园路联西路东约1米,121.22990306743,31.271760120715,1,死亡事故
3101142201400155,金昌西路嘉松北路北约2米,121.22866626963,31.306278559078,1,死亡事故
3101173201500005,上海绕城高速西侧129.2km约20米,121.48789948569,31.249161710015,1,伤人事故
3101205201500002,环城南路环城西路东约1米,121.46449223302,30.91009124566,1,死亡事故
3101175201500015,沪松公路张泾路东约1米,121.286128171,31.115674446006,1,伤人事故
3102305201500002,三双公路出利民路北约200米,121.42276988744,31.687038628821,1,死亡事故
3101171201400190,九泾路进涞寅路北约3米,121.29794169513,31.147217167335,1,死亡事故
3101159201500062,杨高中路进金新路西约10米,121.56764557999,31.239628712103,1,死亡事故
3101128201400270,兰竹路出青杉路北约100米,121.36816552285,31.183237439015,1,伤人事故
3101179201400132,人民北路进思贤路南约100米,121.2279521428,31.063420464936,1,死亡事故
3102268201400004,目华路出北河路北约37米,121.46073592901,30.849947702319,1,死亡事故
3101158201400485,沪南公路沉香村,121.59445549715,31.073751430166,1,死亡事故
3101203201400108,望园路进航南公路北约1000米,121.48368233748,30.953523696345,1,死亡事故
3101145201400145,娄陆公路嘉唐公路东约1000米,121.20598616741,31.459253354901,1,死亡事故
3101207201400169,海湾路南海公路东约2米,121.51528790891,30.840050431454,1,死亡事故
3102306201400139,港沿公路出草港公路北约500米,121.57746468084,31.622725551125,1,死亡事故
3101172201500021,莘砖公路出九新公路东约120米,121.31075865886,31.099250839984,1,伤人事故
3101120201400289,虹梅南路出金都路北约300米,121.43894086074,31.106950867134,1,死亡事故
3101129201500007,吴中路进虹梅路西约150米,121.38468442155,31.180662725161,1,死亡事故
3101170201400167,昆港公路港兴路东约10米,121.14213216568,31.04911167282,1,死亡事故
3101150201400469,老芦公路进同顺大道北约1000米,121.86496866095,30.908914638838,1,死亡事故
3101179201500023,松东路出环城路北约200米,121.26233344143,31.022526047762,1,伤人事故
3101170201500033,龙源路进文汇路北约800米,121.20723051727,31.067098900082,1,伤人事故
3101128201500029,东川路天星路西约0米,121.41000130106,31.015450122866,1,死亡事故
3101043201400072,田东路出漕东支路东约150米,121.44615739716,31.180079147547,1,死亡事故
3101203201400182,团青公路北唐路东约1米,121.7258778385,30.947604113482,1,死亡事故
3101054201500001,虹桥路出中山西路东约250米,121.38356537453,31.198248596211,1,死亡事故
3101130201400206,水产路进牡丹江路西约100米,121.48740129804,31.385163974754,1,伤人事故
3101154201400434,周祝公路进南祝路(西)西约1000米,121.68118942377,31.117616396708,1,死亡事故
3101127201400276,三鲁公路联航路北约0米,121.53471142009,31.065041532741,1,伤人事故
3101139201400166,月春路进月罗路南约100米,121.39514599499,31.418886290022,1,死亡事故
3101131201400139,江杨北路东侧0km约98米,121.45074644924,31.399361183592,1,死亡事故
3101187201400508,崧泽大道诸光路东南约5米,121.31799053115,31.175389849468,1,死亡事故
3101120201500010,北青公路华翔路西南约15米,121.31044805805,31.207424482076,1,伤人事故
3101125201400235,浦星公路进鲁南路北约500米,121.52214197007,30.989054381003,1,伤人事故
3101123201500043,沧源路进景谷东路北约150米,121.43355946456,31.024205802897,1,伤人事故
3101162201400129,漕廊公路进秦弯路东约1000米,121.20522528917,30.795031629141,1,死亡事故
3101051201400038,虹桥路出凯旋路西约20米,121.38356537453,31.198248596211,1,死亡事故
3101201201400165,平庄西路六墩村中心路东约1米,121.47557620732,30.894830309383,1,死亡事故
3101130201400178,朗枫路沪太路东约1米,121.41435126195,31.336870782445,1,死亡事故
3101154201400530,沪南公路沉香村,121.59445549715,31.073751430166,1,死亡事故
3101207201400110,浦卫公路进科工路北约200米,121.43192210425,30.875179078551,1,死亡事故
3101150201400435,秀沿路进康新公路东约150米,121.28091588263,31.368645686579,1,死亡事故
3102308201400130,北陈公路出陈彷公路北约1000米,121.82035847246,31.507831035025,1,死亡事故
3101129201400238,元江路莲花南路西约0米,121.41428137917,31.05715286282,1,伤人事故
3101129201500009,浦星公路沈杜公路北约0米,121.52214197007,30.989054381003,1,伤人事故
3101124201400258,浦星公路进联航路北约150米,121.52214197007,30.989054381003,1,伤人事故
3101153201500001,东川公路金海路东约2米,121.70519761139,31.277418703727,1,死亡事故
3101122201400309,吴中路进吴宝路东约5米,121.38468442155,31.180662725161,1,伤人事故
3101205201400192,奉柘公路进钦林南路东约100米,121.54923180642,30.875451217665,1,死亡事故
3101143201400171,伊宁路环南四路(南)西约100米,121.23797785302,31.337205111655,1,死亡事故
3101204201400203,胡桥新街进浦卫公路东约150米,121.69652232923,31.047420438166,1,死亡事故
3101183201500008,漕盈公路清河湾路(南)南约10米,121.10778030003,31.172602945153,1,死亡事故
3101209201400158,浦卫公路光明中心路西约300米,121.43192210425,30.875179078551,1,死亡事故
3101153201400433,沔北路孙桥路西约1000米,121.6377690023,31.171630402683,1,死亡事故
3101154201400569,川沙路进川图路北约2米,121.70186930324,31.210252137268,1,死亡事故
3101178201500037,辰花公路龙源路北约10米,121.26178054966,31.075595019687,1,伤人事故
3101156201400414,南芦公路出马五公路西约400米,121.80625788855,30.937940330446,1,死亡事故
3101127201400267,剑川路进沧源路东约300米,121.39926457394,31.024352390538,1,伤人事故
3101062201400037,新闸路石门二路西约2米,121.64137552285,31.136741392579,1,死亡事故
3101142201400149,嘉新公路宝安公路东约1米,121.28515158355,31.361848571134,1,死亡事故
3101202201400200,浦星公路进奉柘公路西约100米,121.52848753103,30.955018214554,1,死亡事故
3101139201400218,沪太路行知路东约1米,121.42945269564,31.288795980563,1,财产损失事故
3101137201400187,宝杨路通达路东约1米,121.47302403872,31.395343023417,1,死亡事故
3101017201400025,金陵中路进普安路东约70米,121.48340144992,31.231127569102,1,死亡事故
3101090201400034,奎照路进凉城路西约100米,121.47986982828,31.306091488467,1,死亡事故
3101157201400471,金沪路新金桥路东约10米,121.61153410127,31.257135441234,1,死亡事故
3101148201400162,曹安公路万镇路西约200米,121.26814908747,31.281353334847,1,死亡事故
3101205201400109,大叶公路东侧25km约100米,121.59678141134,30.985723321869,1,死亡事故
3101132201400162,江杨南路进长江西路南约1377米,121.47387511133,31.334171552791,1,死亡事故
3101096201400032,四川北路海宁路西约00米,121.4894605134,31.263453331709,1,死亡事故
3101157201400552,东川公路凌白公路东约1米,121.70519761139,31.277418703727,1,死亡事故
3101175201400191,广富林路辰塔路西南约15米,121.18958983711,31.037639132012,1,死亡事故
3101065201400042,武宁南路康定路南约8米,121.44157850221,31.234727655511,1,死亡事故
3101134201400222,牡丹江路盘古路路口,121.48739154962,31.413218690671,1,伤人事故
3101153201500012,世博大道进白莲泾路南约10米,121.49634747141,31.19153356106,1,死亡事故
3101153201500006,新环东路进牌楼东路东约150米,121.66102386732,31.030185275544,1,死亡事故
3101017201400026,鲁班路斜土路北约0米,121.48342111203,31.203981185437,1,死亡事故
3101177201400175,沪昆高速西侧沪昆高速枫泾收费站广场前约100米,121.07029213544,30.860954039575,1,死亡事故
3101088201500003,共和新路出大宁路北约500米,121.45765266063,31.294617854291,1,伤人事故
3101148201400153,胜竹路永新路东约0米,121.26260411974,31.408599279519,1,死亡事故
3101208201400202,航南公路出泰西路西约5米,121.5700979154,30.993432279029,1,死亡事故
3101204201400201,浦星公路东侧30km约100米,121.52241146173,30.989054381003,1,死亡事故
3101054201400033,古北路出长宁路南约10米,121.40496275216,31.204761003361,1,死亡事故
3101103201400057,嫩江路出中原路西约150米,121.54205737538,31.320844163346,1,死亡事故
3101131201400221,樟岭路盘古路东约0米,121.48346420824,31.413765357238,1,财产损失事故
3101209201400152,扶港路进大叶公路北约100米,121.59655683496,30.985723321869,1,死亡事故
3101161201400105,亭卫公路进大慈路南约200米,121.35893266875,30.818908314705,1,死亡事故
3101166201400127,其他路蔷薇村,121.16134196279,30.841568828548,1,死亡事故
3101089201400042,沪太路出华阴路北约60米,121.42945269564,31.288795980563,1,死亡事故
3101145201400158,徐潘路出劳动路东约300米,121.28894501992,31.444097950352,1,死亡事故
3102219201400019,港建路申东路口,121.65985163343,31.327804532322,1,伤人事故
3101145201400168,博园路新黄路西约10米,121.22990306743,31.271760120715,1,伤人事故
3101045201400085,冠生园路出桂林路东约100米,121.43319961146,31.169586731582,1,死亡事故
3101129201500002,华宁路出北松公路南约300米,121.39326649912,31.037115004625,1,死亡事故
3101174201400203,车亭公路出叶新公路北约1000米,121.32341834726,30.966879506562,1,死亡事故
3101152201400397,南六公路出宣春路南约500米,121.71562004746,31.102010538869,1,死亡事故
3101136201400205,长江路长江南路西约30米,121.49877562084,31.355760609932,1,死亡事故
3101094201400031,四川北路邢家桥南路北约20米,121.4894605134,31.263453331709,1,死亡事故
3101170201400144,卖新公路马明路西北约10米,121.29680773983,31.074903302914,1,死亡事故
3101170201400197,泗砖路出长施公路南约70米,121.29100122237,31.101728570268,1,伤人事故
3101150201400437,沪城环路出橄榄路南约200米,121.90429797725,30.901247299173,1,死亡事故
3101157201400484,沪南公路出沈庄路南约100米,121.58687576414,31.086765384951,1,死亡事故
3101136201400217,江杨北路进富锦路北约20米,121.45074644924,31.399361183592,1,财产损失事故
3101172201400157,辰花路出沪松公路西约10米,121.26197366827,31.078744875329,1,伤人事故
3102239201400004,富特中路出新灵路北约50米,121.61283740423,31.332478117465,1,伤人事故
3101144201400178,沈石路进宝安公路西约100米,121.31088419975,31.352054800342,1,死亡事故
3101178201500027,荣乐东路出联阳路东约20米,121.27416680464,31.024523734755,1,伤人事故
3101124201400247,中春路北松公路南约200米,121.36987807493,31.121332054514,1,伤人事故
3101125201400262,沪闵路莘建路西约0米,121.41376719538,31.142218076929,1,死亡事故
3101179201400159,北松公路进香泾路东约10米,121.34881972498,31.020412597207,1,死亡事故
3102303201500003,北沿公路进小洋公路东约1500米,121.68763852431,31.59348019011,1,死亡事故
3101182201400547,练西公路进沪青平公路南约1000米,120.99389830081,31.055322822518,1,死亡事故
3101140201500001,临洮路靖远路东约1米,121.33646178818,31.263954526723,1,死亡事故
3101129201500025,北翟路南华街西北约15米,121.32632459824,31.230258400383,1,死亡事故
3101167201400096,金廊公路进朱吕公路北约200米,121.19080591909,30.856081123506,1,死亡事故
3101172201500002,沪松路进繁华路南约50米,121.25176062991,31.031618466141,1,死亡事故
3101124201500001,吴中路进桂林北路西约200米,121.38468442155,31.180662725161,1,死亡事故
3101136201400164,洛场路进场联路西约100米,121.41745980505,31.308664877684,1,死亡事故
3101186201500060,沪青平公路进前云路南约200米,121.13295310661,31.143295660667,1,伤人事故
3101146201500034,柳湖路树屏路东约1米,121.2537554763,31.408710678862,1,死亡事故
3101183201500025,沪青平公路蟠龙路西北约5米,121.2905527667,31.187183666873,1,死亡事故
3101173201500104,方塔北路美能达路北约20米,121.25472819744,31.022725318421,1,伤人事故
3101175201500004,姚北公路出沪亭南路东约20米,121.3362593173,31.110831514626,1,死亡事故
3101186201500014,练西公路进老朱枫公路西约600米,120.99389830081,31.055322822518,1,死亡事故
3101144201400166,胜辛南路进宝安公路东约300米,121.27301746765,31.313423043537,1,死亡事故
3101153201500027,沪南公路观海路东约1米,121.64921727631,31.033430979487,1,死亡事故
3101122201500003,北翟路七莘路东南约12米,121.33425004862,31.224837868868,1,死亡事故
3101179201500008,泗凤公路刘五公路东约5米,121.25394294188,31.116747989293,1,伤人事故
3101151201500069,顾高公路出陈邵路西约350米,121.66757635744,31.308192384749,1,死亡事故
3101155201400506,张杨北路外环高速外侧张杨北路上匝道西约5米,121.65047185248,31.263205790853,1,死亡事故
3101153201400491,昌里路洪山路东约1米,121.50198196516,31.180001007852,1,死亡事故
3101091201400029,东长治路进高阳路西约100米,121.50613268817,31.256447787377,1,死亡事故
3101016201400030,人民路新开河路北约0米,121.50108643092,31.236194348466,1,死亡事故
3101075201400105,曹杨路进宁夏路北约50米,121.4200690924,31.246581806373,1,死亡事故
3101143201500021,沪宜公路永盛路西约5米,121.25634659902,31.37945945003,1,死亡事故
3101138201400154,江杨北路出友谊路南约200米,121.45074644924,31.399361183592,1,死亡事故
3101179201500007,上海绕城高速东侧139km约900米,121.48789948569,31.249161710015,1,伤人事故
3101156201400570,人民西路进大川公路西约800米,121.74798353452,31.054730682455,1,死亡事故
3101162201400135,金石南路进漕廊公路北约1000米,121.27295656254,30.752660044154,1,死亡事故
3101096201500001,临平路瑞虹路东约0米,121.50319991741,31.267570685699,1,伤人事故
3101147201400180,博乐南路嘉罗公路东约1米,121.27040753801,31.380114168538,1,死亡事故
3101142201500014,叶城路出永盛路西约50米,121.26405486787,31.372932522901,1,死亡事故
3101135201400169,罗北路进罗溪路东约389米,121.37245662047,31.452702651312,1,死亡事故
3101131201400203,泰和路进同济路西约20米,121.47542755213,31.372113849306,1,死亡事故
3101123201400268,联友路进鸣嘉路北约300米,121.27507421717,31.235165258898,1,伤人事故
3101124201400259,沧源路进剑川路南约300米,121.43355946456,31.024205802897,1,死亡事故
3101178201500016,昆港公路进平原街南约50米,121.14213216568,31.04911167282,1,伤人事故
3101121201400306,春申路出虹梅南路东约200米,121.41282744206,31.113703638173,1,伤人事故
3103014201400007,卢浦大桥西侧LDX-048约0米,121.48774119977,31.19475602515,1,伤人事故
3101174201400153,广富林东路中创路南约15米,121.27826706804,31.057356593791,1,伤人事故
3101152201400517,南六公路朱明连路西约1米,121.71562004746,31.102010538869,1,死亡事故
3101059201400035,仙霞西路平塘路东约5米,121.35474112763,31.216145760106,1,死亡事故
3101153201400535,高桥江东路出凌海路北约150米,121.58992812721,31.344431667714,1,死亡事故
3101172201500042,荣乐西路出玉树路东约500米,121.20517128933,31.022583706731,1,死亡事故
3101120201400245,昆阳路剑川路北约200米,121.37261971502,31.024839538314,1,死亡事故
3101157201400402,罗山路博山路西北约5米,121.56871012142,31.252065326929,1,死亡事故
3101168201500002,松卫南路进漕廊公路南约20米,121.33518265772,30.790854977816,1,死亡事故
3101140201400175,沪宜公路进世盛路西约10米,121.25634659902,31.37945945003,1,死亡事故
3101155201400513,五洲大道南侧杨高北路上匝道,121.60654252387,31.309714037745,1,死亡事故
3101154201400426,新元南路两港大道东约5米,121.82803913818,30.885841107168,1,死亡事故
3101150201500030,康桥东路康新公路北约20米,121.64744700181,31.043728831207,1,死亡事故
3101139201500054,沪太路纬地路东约1米,121.42945269564,31.288795980563,1,伤人事故
3101132201400198,金石路沪太路路口,121.35832587326,31.466660482427,1,死亡事故
3101147201500005,嘉行公路进施钱路南约1000米,121.25621058209,31.445409164648,1,死亡事故
3101206201400173,林海公路进上塑路北约100米,121.57611055265,30.930233742508,1,死亡事故
3101148201400181,徐曹路开源路东约20米,121.29752226551,31.432606692029,1,死亡事故
3101133201500045,铁山路进水产路南约900米,121.46576970251,31.3865431053,1,伤人事故
3101156201400497,华夏西路进康杉路西约80米,121.58122391782,31.174695361261,1,死亡事故
3101139201400191,其他路洋桥村沈家宅,121.31858442787,31.505253972926,1,死亡事故
3101141201500013,沪嘉高速东侧23公里km约800米,121.48517133186,31.367353327399,1,死亡事故
3101176201500001,大叶公路出车亭公路东约850米,121.32341834726,30.966879506562,1,死亡事故
3101179201500025,松卫北路进塔闵公路北约80米,121.26878319953,31.035166099497,1,伤人事故
3101154201400449,上海绕城高速外侧54.6km约10米,121.48789948569,31.249161710015,1,死亡事故
3101122201400261,七莘路中谊路西约0米,121.34848343353,31.172391216909,1,死亡事故
3101156201400525,金海路顾唐路东约2米,121.68319812472,31.276267606886,1,死亡事故
3101139201400216,长江南路进淞塘路东约200米,121.49074716716,31.340838176528,1,伤人事故
3101138201400220,淞宝路淞青路西约0米,121.50998410388,31.394398927354,1,伤人事故
3101145201400179,宝安公路宝中路东约1米,121.298841349,31.339927524535,1,死亡事故
3101171201500012,南乐路出新车公路西约200米,121.29708370377,31.029380186035,1,伤人事故
3101132201400226,金石路潘泾路路口,121.35604451413,31.466153227722,1,死亡事故
3101182201500016,华重公路进嘉松中路西约100米,121.240475746,31.225519630827,1,死亡事故
3101055201400039,长宁路中山西路南约5米,121.41793816261,31.223180712749,1,死亡事故
3101072201400093,交通路进中山北路西约100米,121.42836544684,31.265963582008,1,死亡事故
3101137201400176,沪太公路曹新公路路口,121.34235380187,31.443473875194,1,死亡事故
3101150201500022,高木桥路进孙环路东约1米,121.64009642474,31.188898268293,1,死亡事故
3101174201500035,叶家公路出沪松公路东约100米,121.29673689946,31.123308657121,1,伤人事故
3101157201400527,老芦公路出塘北路北约500米,121.86496866095,30.908914638838,1,死亡事故
3101126201400264,立跃路万芳路东约10米,121.53056078511,31.098369713669,1,伤人事故
3101178201400176,莘松路出场西路东约300米,121.36516724585,31.105826381801,1,死亡事故
3101130201400212,江杨南路�藻南路北约1米,121.47387511133,31.334171552791,1,死亡事故
3101205201400114,平庄东路沿钱公路东约3米,121.56092145692,30.937255157441,1,死亡事故
3101202201400126,平庄东路奉柘公路西约200米,121.61748807828,30.899957102179,1,死亡事故
3101051201400031,华山路出江苏路南约200米,121.44425782954,31.218154699204,1,死亡事故
3101141201400177,北大街进温宿路北约500米,121.25421536291,31.395837049304,1,死亡事故
3101159201400555,东川公路金海路东南约15米,121.68319812472,31.276267606886,1,死亡事故
3102303201400149,团城公路进新申公路东约300米,121.56120125933,31.579714291913,1,死亡事故
3102301201400111,陈海公路堡镇北路南约15米,121.64398064387,31.568437266314,1,伤人事故
3101158201400456,川南奉公路出下盐路北约400米,121.77668608258,30.986106921243,1,死亡事故
3101151201400521,其他路康桥镇锦绣华都小区,121.58764490859,31.160928568065,1,死亡事故
3101154201500002,华夏东路出凌空路东约150米,121.71361704805,31.20709439941,1,死亡事故
3101184201400531,华青南路出沪青平公路北约300米,121.14083411422,31.150281849443,1,死亡事故
3101178201500020,荣乐东路东兴路南约10米,121.27416680464,31.024523734755,1,伤人事故
3101173201500055,荣乐东路松卫北路东南约15米,121.26878319953,31.035166099497,1,死亡事故
3101139201400173,水产路进同泰北路西约200米,121.48740129804,31.385163974754,1,伤人事故
3101122201500005,沪闵路灯辉路北约50米,121.41376719538,31.142218076929,1,死亡事故
3101013201400024,南京东路西藏中路南约0米,121.49022908383,31.242866642007,1,伤人事故
3101135201400194,新川沙路潘泾路东约1米,121.35174437775,31.484403882952,1,死亡事故
3101136201400188,平遥路沪太路东约1米,121.42796730346,31.296451835208,1,死亡事故
3101173201500019,广富林东路出中凯路西约100米,121.27826706804,31.057356593791,1,伤人事故
3101175201400204,沪松公路广富林路东北约15米,121.20826036346,31.066377021386,1,伤人事故
3101170201400189,古楼公路出嘉松南路东约50米,121.25814314715,31.111176038808,1,伤人事故
3101158201500010,川沙路进民春路南约400米,121.70186930324,31.210252137268,1,死亡事故
3101141201400167,丰华公路丰庄西路西约300米,121.34465748568,31.24802089948,1,死亡事故
3101081201400036,共和新路永和路北约1米,121.45765266063,31.294617854291,1,伤人事故
3101201201400177,大叶公路东侧30km约100米,121.59682632661,30.985723321869,1,死亡事故
3101150201400578,高科东路齐爱路东约1米,121.66564973018,31.220602364299,1,死亡事故
3101127201400254,纪翟路朱建路东南约10米,121.27453998859,31.220939783724,1,死亡事故
3101073201500002,真南路水厂路东约0米,121.37177940771,31.287175348079,1,死亡事故
3101209201400195,航塘公路进南奉公路南约700米,121.6117892407,30.944954826666,1,死亡事故
3101185201400520,白石公路老白石公路南约10米,121.10836464327,31.26325941637,1,死亡事故
3101153201400564,老芦公路港北路口,121.86496866095,30.908914638838,1,死亡事故
3101140201400148,墨玉路进昌吉路北约150米,121.16972540345,31.304528477948,1,死亡事故
3101154201400442,港城路出江泉路东约10米,121.5555400329,31.357712231187,1,死亡事故
3101163201400117,亭卫公路红旗东路东约1米,121.35893266875,30.818908314705,1,死亡事故
3101157201400457,浦星公路出红临路北约300米,121.52214197007,30.989054381003,1,死亡事故
3101129201500050,漕宝路莲花路西约5米,121.40316343724,31.165939946502,1,伤人事故
3101132201500017,沪太公路顾太路路口,121.39604181669,31.352144217638,1,伤人事故
3101138201400144,江杨南路呼兰路东约1米,121.47387511133,31.334171552791,1,死亡事故
3101170201400205,松卫北路进泖亭路北约10米,121.26878319953,31.035166099497,1,死亡事故
3101174201400180,长兴路进沪松公路东约20米,121.2788269612,31.087417844386,1,死亡事故
3101154201500013,济阳路进三航路北约500米,121.48865736988,31.168069641565,1,死亡事故
3101127201500014,景谷路华宁路东约0米,121.41293276389,31.02056316021,1,伤人事故
3101179201500014,荣乐东路出方塔北路东约100米,121.27416680464,31.024523734755,1,伤人事故
3101148201400169,银翔路槎溪路东约1米,121.32750696862,31.295877977302,1,死亡事故
3101090201400035,霍山路大连路南约00米,121.52249516763,31.263615506563,1,死亡事故
3101139201400208,沪太路南�藻路东约1米,121.42945269564,31.288795980563,1,死亡事故
3101189201500009,沈太路进沈砖公路南约4000米,121.08176057102,31.061127969536,1,死亡事故
3101129201500004,虹梅南路进澄江路南约500米,121.43894086074,31.106950867134,1,死亡事故
3101137201400211,�川公路湄星路(东)西南约1米,121.48819660743,31.262452833682,1,死亡事故
3101154201400520,大治河路进英墩路西约800米,121.7086249173,31.01793566948,1,死亡事故
3101094201400037,汶水东路出逸仙路西约100米,121.48525196287,31.295504298278,1,死亡事故
3101148201400164,泽普路进墨玉路西约200米,121.16985284516,31.297430341004,1,死亡事故
3101127201400290,银春路沪闵路西约600米,121.40256481364,31.033274400078,1,死亡事故
3101169201400119,漕廊公路进张溪路东约1米,121.31110155824,30.801830215806,1,死亡事故
3102302201400125,其他路港沿镇惠中村,121.67790601293,31.615287971635,1,死亡事故
3101205201400156,环城南路通阳路东约1米,121.46449223302,30.91009124566,1,死亡事故
3101158201500085,高桥江东路进草高公路西约150米,121.54027131406,31.375944177685,1,死亡事故
3101134201400214,泰和路同济路路口东侧约200米处,121.49901328733,31.379145417305,1,财产损失事故
3101180201400504,崧泽大道赵重公路北约5米,121.226133464,31.181060549011,1,死亡事故
3101134201400215,联杨路进长联路南约100米,121.3446881206,31.38416979434,1,死亡事故
3101148201400154,恒飞路百安公路西约500米,121.16448054882,31.36903871291,1,死亡事故
3101157201400528,世纪大道出商城路东约33米,121.53047886594,31.236379902815,1,死亡事故
3101149201400174,宝钱公路嘉唐公路东约500米,121.21732566112,31.429180650846,1,伤人事故
3101159201400563,三宣公路进南团公路西约2000米,121.75721777111,31.001043202692,1,死亡事故
3101131201400193,宝安公路进菊泉街东约50米,121.298841349,31.339927524535,1,伤人事故
3101137201500026,军工路出淞军路西约300米,121.5516330552,31.326931272967,1,死亡事故
3101142201400128,和静路22弄7号门前东西向小路,121.19403986474,31.308975873432,1,死亡事故
3101179201400186,易富路进九新公路西约200米,121.32223817594,31.11778019385,1,伤人事故
3101138201400225,沪太公路石太路东约10米,121.34287028711,31.42179094487,1,财产损失事故
3101155201500055,康新公路周邓公路东约10米,121.6371293944,31.084888556095,1,死亡事故
3101153201500041,华夏中路罗山路东约30米,121.62644740014,31.186470740366,1,死亡事故
3101200201500019,团青公路奉村路东约1米,121.7258778385,30.947604113482,1,死亡事故
3101128201500051,虹梅南路外环高速东约0米,121.46288401284,31.132169062864,1,死亡事故
3101129201500044,立跃路浦秀路北约0米,121.40710210267,30.988381308803,1,伤人事故
3101101201500001,中山北二路四平路东约5米,121.50657464191,31.292840298282,1,死亡事故
3101201201500018,港文路海杰路东约100米,121.76130935598,30.902817674428,1,死亡事故
3101155201500136,高桥江东路出凌江路南约200米,121.58992812721,31.344431667714,1,死亡事故
3101094201500005,周家嘴路出通州路东约20米,121.5195983758,31.270044785563,1,伤人事故
3101155201500071,花木路出锦绣路东约30米,121.56814907034,31.219855940744,1,死亡事故
3101151201500037,南团公路出南芦公路北约500米,121.76946215401,31.002490885793,1,死亡事故
3101201201500027,奉柘公路进沪杭公路东约1000米,121.54923180642,30.875451217665,1,死亡事故
3101123201500012,立跃路浦秀路西约0米,121.40710210267,30.988381308803,1,伤人事故
3101134201400151,泰和路江杨北路东约1米,121.47542755213,31.372113849306,1,死亡事故
3101179201500107,民益路新效路西约2米,121.3022030301,31.053173555995,1,财产损失事故
3101158201500023,沪芦高速临港服务区北侧加油站,121.80921384817,30.922367619517,1,死亡事故
3101041201500013,中山南二路出天钥桥路西约200米,121.45862188916,31.192198913909,1,死亡事故
3101121201500046,北青公路进金光路西约800米,121.2102098508,31.197754092831,1,伤人事故
3101137201500042,石太路钱陆路东约1米,121.38593617973,31.447176439003,1,伤人事故
3101175201500075,泗砖南路进长兴东路南约400米,121.29403679342,31.080731583956,1,伤人事故
3101132201500034,祁连山路丰翔路北约0米,121.38654539526,31.301050845346,1,伤人事故
3101140201500043,上海绕城高速东侧173km约800米,121.48789948569,31.249161710015,1,死亡事故
3101153201500090,高桥江东路出凌高路南约80米,121.58992812721,31.344431667714,1,死亡事故
3101179201500052,千新公路出九江公路北约2米,121.17977984687,31.104266029752,1,伤人事故
3101157201500108,世纪大道进商城路西约10米,121.53047886594,31.236379902815,1,死亡事故
3101120201500064,华翔路进天山西路北约60米,121.31044805805,31.207424482076,1,伤人事故
3101131201500009,泉临路长临路东约1米,121.44385319052,31.330174835005,1,伤人事故
3101157201500120,南芦公路188弄158号上海成农饲料厂东门口,121.78910180738,30.948670602355,1,死亡事故
3101086201500013,长临路共康路东约5米,121.44118539204,31.332232125057,1,死亡事故
3101176201500102,九新公路进中心路南约20米,121.32339013418,31.088979970326,1,伤人事故
3101180201500051,练西公路进老朱枫公路西约300米,120.99389830081,31.055322822518,1,死亡事故
3101182201500059,华青北路天辰路南约10米,121.13837806431,31.163992291177,1,死亡事故
3101150201500102,上南路外环高速东约5米,121.46288401284,31.132169062864,1,死亡事故
3101079201500020,武宁路大渡河路东南约10米,121.40312661031,31.247586855505,1,死亡事故
3101090201500014,海伦西路进四川北路西约100米,121.48851471717,31.265596996892,1,伤人事故
3101123201500041,剑川路龙吴路西北约5米,121.39926457394,31.024352390538,1,伤人事故
3101139201500027,外环隧道内侧1km约500米,121.50949592065,31.382509904733,1,死亡事故
3101125201500033,虹梅南路出莘朱路南约30米,121.43894086074,31.106950867134,1,伤人事故
3101174201500079,新松江路出辰塔路西约25米,121.21317659099,31.045066673201,1,死亡事故
3101141201500019,思义路浏翔公路西南约5米,121.32251187974,31.342150033555,1,死亡事故
3101158201500064,申港大道环湖西三路东约5米,121.90602777859,30.903896704317,1,死亡事故
3101177201500029,泖亭路荣福路东南约10米,121.27708752733,31.002733014231,1,伤人事故
3101088201500010,中兴路大统路东约3米,121.47273918694,31.258632534726,1,伤人事故
3101083201400044,宝山路出西华路北约5米,121.48416823093,31.263809171137,1,伤人事故
3101134201500093,罗北路钱陆路东约1米,121.37245662047,31.452702651312,1,伤人事故
3101176201500063,叶新公路张米公路西南约2米,121.2496689426,30.955457245712,1,财产损失事故
3101158201500113,浦明路出塘桥新路北约200米,121.52085413504,31.222625108725,1,死亡事故
3101120201500040,三鲁公路江文路北约100米,121.53471142009,31.065041532741,1,伤人事故
3101134201500063,南大路南陈路东约200米,121.39020577282,31.30579763068,1,伤人事故
3101124201500042,光中路中春路南约1米,121.39588519892,31.078446267646,1,伤人事故
3101142201500023,刘石路进大治路北约300米,121.3168450434,31.399526807016,1,死亡事故
3101176201500074,刘五公路古楼公路北约15米,121.25624908346,31.115554022636,1,伤人事故
3101121201500037,沪闵路金都路东约00米,121.41376719538,31.142218076929,1,死亡事故
3103017201500001,中环高架外侧ZW0076约0米,121.29308405958,31.114777386686,1,财产损失事故
3101171201500066,梅家浜路进谷阳北路东约200米,121.23909341461,31.057965280092,1,伤人事故
3101153201500043,高科中路芳春路南约1米,121.62338108818,31.204180016035,1,死亡事故
3101170201500054,松卫北路塔闵公路西北约5米,121.26878319953,31.035166099497,1,伤人事故
3101202201400188,金闸公路南侧1km前约100米,121.51043055094,30.996829213284,1,死亡事故
3101204201400197,南奉公路进上海绕城高速内侧奉城上匝道东约100米,121.64996720421,30.921263575273,1,伤人事故
3101159201500056,洲海路华东路东约1米,121.63123874075,31.322774583562,1,死亡事故
3101146201500041,塔城路梅园路西约150米,121.25404475313,31.385042530429,1,死亡事故
3101200201400205,环城西路进西闸公路西约500米,121.11725349487,31.146155547968,1,死亡事故
3102307201400150,乔松路出绿海路东约100米,121.43482307769,31.635527791683,1,死亡事故
3101150201500017,川桥路出金豫路西约100米,121.61984424559,31.251298807471,1,死亡事故
3101132201500084,沪太路朗枫路北约500米,121.42945269564,31.288795980563,1,伤人事故
3101177201500041,松蒸公路进彭丰路西约20米,121.12949748251,30.993887288567,1,死亡事故
3101156201500132,施新路施湾三路东约1米,121.77158461188,31.155383810299,1,死亡事故
3101185201500027,外青松公路崧泽大道北约5米,121.12572215328,31.194109256781,1,死亡事故
3101142201500038,百安公路进宝钱公路南约500米,121.18240056337,31.35853556089,1,死亡事故
3101133201400219,上海绕城高速内侧208km约500米,121.48789948569,31.249161710015,1,财产损失事故
3101151201500005,杨高北路秋霞路东约1米,121.61092404224,31.315188632619,1,死亡事故
3101134201500024,�川公路进罗北路北约200米,121.37245662047,31.452702651312,1,伤人事故
3101159201500079,杨高北路草高支路东约1米,121.61092404224,31.315188632619,1,死亡事故
3101201201500046,奉柘公路金海公路东约2米,121.54923180642,30.875451217665,1,死亡事故
3101132201500035,牡丹江路出海江三路北约20米,121.4897921139,31.408212726034,1,财产损失事故
3101155201500146,张杨北路衡安路东约1米,121.59505392852,31.337690362703,1,死亡事故
3101077201500024,岚皋路岚皋西路北约0米,121.42893052681,31.25860325606,1,死亡事故
3101179201500049,荣乐西路三新路东约2米,121.20517128933,31.022583706731,1,伤人事故
3101084201500016,中山北路出共和新路西约150米,121.44694099534,31.262035092774,1,死亡事故
3101041201500003,番禺路秀山路南约5米,121.43641063146,31.207965681863,1,死亡事故
3101154201500111,杨高南路进浦建路南约100米,121.52533299379,31.180603304636,1,死亡事故
3101174201500053,叶新公路出松金公路东约100米,121.1922430552,30.941933114626,1,伤人事故
3101137201500041,真华路出华灵路南约60米,121.41776765973,31.284600333315,1,伤人事故
3101137201500012,宝杨路进江杨北路(东)西约30米,121.42034951194,31.398090908842,1,财产损失事故
3101147201500017,浏翔公路丰翔路西约20米,121.30071100214,31.42332615326,1,死亡事故
3101155201500067,南六公路进下盐公路北约100米,121.71562004746,31.102010538869,1,死亡事故
3101143201500028,澄浏中路横仓公路北约1米,121.2889232432,31.379199350521,1,死亡事故
3101120201500047,虹梅南路出放鹤路北约30米,121.43894086074,31.106950867134,1,死亡事故
3101181201500053,天辰路进久远路西约10米,121.12066001938,31.205811688266,1,死亡事故
3101133201500046,宝杨路海江一路东约1米,121.47302403872,31.395343023417,1,伤人事故
3101154201500130,民雷路出秦家港路南约20米,121.67187604736,31.267373353843,1,死亡事故
3101179201500070,闵申路进茜浦路东约50米,121.33027950503,31.05630076603,1,伤人事故
3101041201500001,中山南二路出兆丰路东约5米,121.45862188916,31.192198913909,1,死亡事故
3101156201500019,周祝公路出周园路东约500米,121.68118942377,31.117616396708,1,死亡事故
3101131201500074,真金路武威东路东约1米,121.41300215439,31.282709479062,1,死亡事故
3101130201400196,其他路共富一村,121.43764509097,31.356891269541,1,死亡事故
3101157201400586,施湾二路施新路东约1米,121.75277086959,31.153250989437,1,死亡事故
3101087201500019,海宁路出乌镇路东约20米,121.48892741938,31.253833913881,1,伤人事故
3101155201500070,陆家嘴东路进陆家嘴环路西约100米,121.51461396419,31.242120663502,1,死亡事故
3101179201500090,香闵路香车路南约10米,121.30012624837,31.010952048358,1,财产损失事故
3101146201500024,上海绕城高速北侧173km约10米,121.48789948569,31.249161710015,1,死亡事故
3101200201400204,航南公路沪杭公路东约1米,121.5700979154,30.993432279029,1,死亡事故
3102306201500023,北沿公路新海北路东约500米,121.30412814641,31.8236758984,1,死亡事故
3101139201400213,沪太公路进曹新公路南约600米,121.34287028711,31.42179094487,1,死亡事故
3101126201500019,宝南路进七莘路东约300米,121.36605285651,31.157643683796,1,伤人事故
3101012201500011,斜土路出制造局路西约150米,121.47258074292,31.206376510787,1,伤人事故
3101173201500106,人民北路进梅家浜路南约100米,121.25059384873,31.060910975816,1,伤人事故
3101162201500024,松金公路进金张公路南约1米,121.24163640612,30.929048650339,1,死亡事故
3101073201500003,桃浦路大渡河路东约50米,121.39595273712,31.265527736622,1,死亡事故
3101146201500029,北周路进外钱公路(西)西约300米,121.33785498277,31.407275947492,1,死亡事故
3101134201500064,汶水路真北路东约1米,121.44176936159,31.296318969488,1,死亡事故
3101099201500002,纪念路逸仙路南约00米,121.49455817888,31.303601010674,1,伤人事故
3101208201500006,奉柘公路进沿钱路西约500米,121.54923180642,30.875451217665,1,死亡事故
3101174201400198,车阳路香泾路东南约5米,121.28915447422,30.992536145533,1,伤人事故
3101153201500075,陈行公路进上南路南约500米,121.51394110641,31.101384746455,1,死亡事故
3101135201500094,刘场路出共康路北约300米,121.43722774542,31.322658504261,1,死亡事故
3101171201500096,刘五公路进古楼公路北约100米,121.27407526371,31.111878397037,1,伤人事故
3101145201500039,胜竹路进城北路西约200米,121.26260411974,31.408599279519,1,伤人事故
3101129201500045,吴中路古北路东北约0米,121.40496275216,31.204761003361,1,伤人事故
3101129201500016,沪青平公路航新路东南约15米,121.35387816235,31.176963359411,1,伤人事故
3101131201500073,友谊路进铁峰路西约50米,121.48184812968,31.40813475969,1,死亡事故
3101172201500082,松卫北路进北松公路北约250米,121.26878319953,31.035166099497,1,死亡事故
3101159201500057,大川公路进拱乐路北约200米,121.74181840003,31.072753125437,1,死亡事故
3101184201500065,白石公路进程鹤路西约200米,121.10836464327,31.26325941637,1,死亡事故
3101158201500112,蓝天路进红枫路西约200米,121.58516477062,31.246176942578,1,死亡事故
3101134201500030,泰和路铁山路路口,121.47337810674,31.371452615867,1,死亡事故
3101136201500011,逸仙路安达路南约1米,121.49478341102,31.332515411687,1,死亡事故
3101139201500022,真陈路城银路路口,121.35853273325,31.318649390098,1,伤人事故
3101065201500016,巨鹿路富民路东约3米,121.46544692337,31.228872573291,1,死亡事故
3101156201500107,东川公路金海路东约1米,121.70519761139,31.277418703727,1,死亡事故
3101171201500065,莘砖公路同乐路东约10米,121.31075865886,31.099250839984,1,死亡事故
3101138201500061,盘古路铁力路路口,121.46795240074,31.406802175357,1,死亡事故
3101157201500050,三三公路出滨果公路东约400米,121.89165910977,30.96166671443,1,死亡事故
3101089201500004,浙江北路天潼路北约5米,121.48262354699,31.249750179196,1,伤人事故
3101139201500057,�川路进联谊路北约150米,121.43202978682,31.349799883771,1,伤人事故
3101186201500072,崧泽大道嘉松中路东约5米,121.226133464,31.181060549011,1,伤人事故
3101135201500053,罗北路进�川公路西约600米,121.37245662047,31.452702651312,1,伤人事故
3101126201500054,龙茗路出平阳路南约80米,121.39249801582,31.146392052073,1,伤人事故
3101177201500088,莘砖公路高技路西约15米,121.31075865886,31.099250839984,1,伤人事故
3101135201500062,石太路进沪太路东约200米,121.38593617973,31.447176439003,1,死亡事故
3101099201500003,四平路进吴淞路北约150米,121.50988741207,31.28230655771,1,伤人事故
3101159201500138,张杨路德平路东约1米,121.5557583948,31.24397355525,1,死亡事故
3101125201500073,华翔路进天山西路北约100米,121.31044805805,31.207424482076,1,伤人事故
3101204201500034,奉柘公路星火公路东约1米,121.54923180642,30.875451217665,1,死亡事故
3101148201500027,曹安公路出米泉路西约200米,121.26814908747,31.281353334847,1,死亡事故
3101133201500050,沪太路月罗路东约1米,121.42945269564,31.288795980563,1,伤人事故
3101133201500068,淞滨支路淞滨路北约200米,121.49411468545,31.374843902914,1,伤人事故
3101083201500001,三泉路出保德路北约300米,121.44709709119,31.327694038668,1,伤人事故
3101177201500069,叶新公路思源路西约20米,121.1922430552,30.941933114626,1,死亡事故
3101154201500031,华东路进龙东大道南约5米,121.67837296291,31.242158023862,1,死亡事故
3101151201500047,凌白公路庆利路东约1米,121.7651819681,31.232168335129,1,死亡事故
3101188201500045,老朱枫公路顾林路东北约18米,121.01779076333,31.03875174591,1,死亡事故
3101123201500036,虹梅路出宜山路南约55米,121.41081125732,31.164838239581,1,伤人事故
3101155201500008,南芦公路东大公路南约1米,121.80625788855,30.937940330446,1,死亡事故
3101151201500117,宣黄公路进川南奉公路西约100米,121.77028927869,31.061623175504,1,死亡事故
3101127201500049,沪闵路新苗路北约5米,121.41376719538,31.142218076929,1,伤人事故
3102306201500019,汲浜公路出永北路北约5米,121.77129693493,31.541216479587,1,死亡事故
3101150201500058,南芦公路出东大公路北约800米,121.80625788855,30.937940330446,1,死亡事故
3101175201500061,沈砖公路青天路南约5米,121.26621870618,31.097799089858,1,伤人事故
3101204201400191,沿钱公路东侧2km约500米,121.56093942303,30.937255157441,1,死亡事故
3101122201500063,莘松路进沪闵公路西约60米,121.36516724585,31.105826381801,1,死亡事故
3101206201500047,沿钱公路金大公路北约100米,121.52877582332,30.954533177638,1,死亡事故
3101139201500038,真陈路丰翔路东约1米,121.35320805878,31.307286823324,1,死亡事故
3101122201500030,剑川路沪闵路南约1米,121.39926457394,31.024352390538,1,死亡事故
3101105201500004,双阳路出控江路南约200米,121.53840298143,31.287692138235,1,死亡事故
3101153201500052,新德西路进韵杪范��00米,121.67668931201,31.197677068142,1,死亡事故
3101017201500005,打浦路隧道通耀路北约5米,121.48417362885,31.191994763546,1,死亡事故
3101153201500048,高桥江东路港城路北约1米,121.58992812721,31.344431667714,1,死亡事故
3101099201500004,大连路进长阳路南约50米,121.5131922475,31.271454724523,1,死亡事故
3101152201500077,张杨北路五莲路东约1米,121.59505392852,31.337690362703,1,死亡事故
3101173201500028,沪松公路卖新公路西约5米,121.286128171,31.115674446006,1,伤人事故
3101121201500059,颛兴东路都会路东约1米,121.42181747609,31.079559304773,1,伤人事故
3101189201500085,崧泽大道出崧盈路东约600米,121.226133464,31.181060549011,1,死亡事故
3101171201500057,沧泾路出九泾路东约250米,121.2907700174,31.153679452947,1,伤人事故
3101171201500039,莘砖公路出泗砖公路东约20米,121.31075865886,31.099250839984,1,死亡事故
3101120201500061,浦星公路竹园路东约0米,121.52214197007,30.989054381003,1,死亡事故
3101176201500051,平阳河路进同乐路东约300米,121.4259795465,31.130547457234,1,伤人事故
3102305201500013,陈彷公路进六��范��00米,121.77384696197,31.524645194877,1,死亡事故
3101174201500062,泗凤公路进刘五公路东约200米,121.25394294188,31.116747989293,1,伤人事故
3101156201500073,金海路出金穗路西约70米,121.68319812472,31.276267606886,1,死亡事故
3101124201500070,陈行公路万芳路西约300米,121.51394110641,31.101384746455,1,伤人事故
3101139201400181,牡丹江路宝杨路东约1米,121.4897921139,31.408212726034,1,死亡事故
3101157201500029,上南路进凌兆路南约10米,121.52247761205,31.140994715006,1,死亡事故
3101175201500080,同乐北路出长浜路北约150米,121.52808727035,31.279700021945,1,伤人事故
3101171201500093,泗砖路长施公路东约5米,121.29100122237,31.101728570268,1,伤人事故
3101124201500069,文井路进东川路北约500米,121.38951870385,31.005644202424,1,伤人事故
3101138201500049,沪太公路金石路东约1米,121.34287028711,31.42179094487,1,伤人事故
3101048201500010,虹梅路顾戴路(西)东南约10米,121.41081125732,31.164838239581,1,伤人事故
3101177201500046,泖亭路华长路西约3米,121.30085746995,31.001856825461,1,伤人事故
3101138201500077,祁连山路进锦秋路东约500米,121.38654539526,31.301050845346,1,死亡事故
3101135201500029,四元路进宝泉路东约150米,121.43615962963,31.419788997084,1,伤人事故
3101010201500001,金陵中路嵩山路西约0米,121.48340144992,31.231127569102,1,死亡事故
3101142201500031,博园路钱家村路西约3米,121.22284618595,31.268776681103,1,死亡事故
3101134201500069,友谊路出克山路西约200米,121.48184812968,31.40813475969,1,死亡事故
3101172201500003,竹亭路进山房公路北约5米,121.27857453915,30.953577648841,1,伤人事故
3101157201500089,莱阳路出衡安路北约100米,121.58957244674,31.331799627296,1,死亡事故
3101130201500028,同济路出宝杨路南约100米,121.49058377078,31.394903900834,1,财产损失事故
3101152201500020,张杨北路江东支路(北)南约20米,121.59505392852,31.337690362703,1,死亡事故
3101154201500014,川南奉公路进航城路南约100米,121.77668608258,30.986106921243,1,死亡事故
3101149201500018,鹤望路出金运路东约200米,121.33043230141,31.251438988322,1,伤人事故
3102306201500020,潘圆公路出大兴路东约500米,121.72935983684,31.394660676824,1,死亡事故
3101086201500006,天目中路大统路东约5米,121.47441343797,31.25107318478,1,伤人事故
3101138201400207,泰和路铁山路南约3米,121.47542755213,31.372113849306,1,死亡事故
3101202201500020,浦星公路东侧30km约50米,121.52241146173,30.989054381003,1,死亡事故
3101154201500003,沪南公路六奉公路南约3米,121.64921727631,31.033430979487,1,死亡事故
3101129201500066,昆阳路出剑川路北约100米,121.37261971502,31.024839538314,1,伤人事故
3101173201500067,叶家公路进沪松公路东约500米,121.29673689946,31.123308657121,1,死亡事故
3101152201500059,其他路航头镇海桥村,121.61732267238,31.01485177971,1,死亡事故
3101044201500014,漕宝路虹漕南路东南约10米,121.42071567474,31.160927265036,1,伤人事故
3101205201500029,沪杭公路进新北路北约200米,121.44846294945,30.971983091198,1,死亡事故
3101086201500012,共和新路中山北路北约5米,121.45765266063,31.294617854291,1,伤人事故
3101081201500015,共和新路出永和路南约100米,121.45765266063,31.294617854291,1,死亡事故
3101096201400039,四平路出密云路北约200米,121.50988741207,31.28230655771,1,死亡事故
3101179201500026,荣乐东路进联阳路西约20米,121.27416680464,31.024523734755,1,财产损失事故
3102307201500009,向化公路进陈海公路南约200米,121.74978607526,31.567880075412,1,死亡事故
3101155201500065,浦东大道进团林路西约25米,121.56178450933,31.261075590096,1,死亡事故
3101203201400196,观工路进南海公路南约200米,121.49478721624,30.847363853184,1,死亡事故
3101133201500048,军工路淞军路路口,121.52020027732,31.352688986339,1,死亡事故
3101175201500036,玉树路进闵塔公路北约200米,121.21585621207,31.003973998226,1,死亡事故
3101179201500081,人民北路出南期昌路南约10米,121.2279521428,31.063420464936,1,死亡事故
3101170201500084,叶新公路进范家公路西约1200米,121.1922430552,30.941933114626,1,死亡事故
3101184201500002,锦商公路出商前路北约1000米,120.93532000961,31.130340716461,1,死亡事故
3101179201500071,荣乐东路进方塔北路东约200米,121.27416680464,31.024523734755,1,伤人事故
3101013201500006,复兴中路进茂名南路东约100米,121.47123808699,31.22086188007,1,死亡事故
3101175201500092,人民北路出新松江路南约150米,121.21805648745,31.047123502082,1,伤人事故
3101070201500008,新村路大华路南约0米,121.42982474234,31.270954510042,1,死亡事故
3102307201500033,北沿公路出汲浜公路北约5米,121.7700975758,31.584793090605,1,死亡事故
3101121201500038,宁虹路出申昆路西约150米,121.33174135082,31.197646780631,1,伤人事故
3101209201500025,川南奉公路东侧48km约200米,121.77711726923,30.986106921243,1,死亡事故
3101151201500053,五洲大道东侧五洲大道南侧杨高北路下匝道前约800米,121.60658743915,31.309714037745,1,死亡事故
3101156201500028,其他路仓房村,121.28479023926,31.822783466098,1,死亡事故
3101169201500019,金廊公路进朱吕公路南约200米,121.19080591909,30.856081123506,1,死亡事故
3101184201500077,朱枫公路进康业路北约10米,121.06734788523,31.003170744344,1,死亡事故
3102213201500003,港建路越海路口,121.65985163343,31.327804532322,1,伤人事故
3101124201500052,北青公路华翔路西南约15米,121.31044805805,31.207424482076,1,伤人事故
3101143201500003,胜辛路洪德路东约2米,121.25152500977,31.351889449337,1,死亡事故
3101135201500013,月罗公路富乐支路东约1米,121.38641646955,31.423061074741,1,死亡事故
3101173201500050,明中路出新育路东约300米,121.34084795617,31.082162724642,1,伤人事故
3101083201500011,粤秀路出彭江路北约200米,121.46733787533,31.297320831467,1,死亡事故
3101096201500013,周家嘴路新建路南约0米,121.5195983758,31.270044785563,1,伤人事故
3101203201500004,大叶公路东侧31km约200米,121.59683530967,30.985723321869,1,死亡事故
3101085201500008,中兴路进恒丰北路西约100米,121.47273918694,31.258632534726,1,伤人事故
3101153201500088,莱阳路出沪东路南约15米,121.58957244674,31.331799627296,1,死亡事故
3101209201500005,南亭公路进浦卫公路西约500米,121.36828035414,30.89875196109,1,死亡事故
3101134201500047,锦秋路出祁连山路东约800米,121.38053687045,31.323273254063,1,伤人事故
3101149201500025,靖远路临洮路南约5米,103.91201515484,35.531078701642,1,死亡事故
3101134201500023,月罗公路进�川公路西约30米,121.38641646955,31.423061074741,1,死亡事故
3101173201500072,泗砖路进沪松公路南约40米,121.29100122237,31.101728570268,1,伤人事故
3101203201500003,金钱公路进平庄西路北约800米,121.51708965824,30.935474397402,1,死亡事故
3101174201500073,明华路进明中路南约100米,121.38405393145,30.823374428181,1,伤人事故
3101135201500052,水产路进铁力路西约50米,121.48740129804,31.385163974754,1,伤人事故
3101137201500018,宝安公路沪太公路路口,121.38298941068,31.36514667558,1,伤人事故
3101164201500011,亭枫公路进松卫南路东约1000米,121.33518265772,30.790854977816,1,死亡事故
3101076201500009,交通路进志丹路西约130米,121.42836544684,31.265963582008,1,死亡事故
3101174201500103,北松公路汇北公路西北约5米,121.34022533613,31.016856420109,1,伤人事故
3101045201500004,衡山路进乌鲁木齐南路西约150米,121.44967779267,31.206668422752,1,伤人事故
3101129201500039,闸航路出召泰路西约20米,121.5354254526,31.025789290729,1,伤人事故
3101176201500056,泗陈公路出沪松公路西约1000米,121.24235651656,31.120546435476,1,伤人事故
3101171201500105,新车公路新加路南约5米,121.31427834471,31.045899487402,1,死亡事故
3101203201400206,秀南路南中路东约5米,121.45314356582,30.916548502369,1,死亡事故
3101135201500016,宝安公路联杨路东约300米,121.298841349,31.339927524535,1,伤人事故
3101135201500007,月罗公路段泾路路口,121.40903779025,31.422546166588,1,死亡事故
3101175201500068,沪松公路江川路东南约12米,121.38502094296,31.00164166744,1,伤人事故
3101120201500072,吴中路进新镇路西约100米,121.38468442155,31.180662725161,1,死亡事故
3102232201500001,日樱南路进德堡路南约300米,121.62570643734,31.317803459451,1,死亡事故
3101127201500028,朱梅路进虹梅南路东约800米,121.42297725588,31.110216058818,1,死亡事故
3101179201500059,振业路进张泾路西约80米,121.28343796159,31.094240014519,1,伤人事故
3101203201500042,上海绕城高速东侧88km约500米,121.48789948569,31.249161710015,1,死亡事故
3101179201500086,林荫新路出林绿路西约800米,121.21664693561,31.107206369236,1,死亡事故
3101170201500038,松汇西路玉树路西北约10米,121.21025464032,31.00866975146,1,死亡事故
3101071201500031,高陵路铜川路西南约0米,121.39071355888,31.263454120217,1,死亡事故
3101172201500060,车亭公路进引水公路南约100米,121.32341834726,30.966879506562,1,伤人事故
3101184201500100,前云路进徐南路南约800米,121.27486717751,31.1533678379,1,死亡事故
3101080201500017,共和新路进汶水路南约5米,121.45765266063,31.294617854291,1,伤人事故
3101134201500087,杨北路进杨宗支路东约150米,121.42034951194,31.398090908842,1,死亡事故
3101174201500098,九新公路进明中路北约100米,121.32339013418,31.088979970326,1,死亡事故
3101134201500070,月罗公路出锦乐路西约300米,121.38641646955,31.423061074741,1,死亡事故
3101149201500052,靖远路临洮路南约1米,103.91201515484,35.531078701642,1,死亡事故
3101137201500086,顾北路进潘泾路西约300米,121.40243290376,31.35857774074,1,死亡事故
3101155201500143,其他路老港镇二灶港路日新13组,121.81949092853,31.066038573362,1,死亡事故
3101130201500071,罗北路沪太公路东约1米,121.37245662047,31.452702651312,1,伤人事故
3101103201500006,国伟路出闸殷路东约200米,121.53946642065,31.337649134072,1,死亡事故
3101139201500078,富锦路江杨北路南约5米,121.39507487255,31.396027814705,1,死亡事故
3101047201500017,康健路习勤路东约5米,121.43458478688,31.17186266638,1,财产损失事故
3101151201500036,迎宾高速西侧迎宾高速北侧唐黄上匝道前约2米,113.55949977564,22.231693326438,1,死亡事故
3101158201500144,金海路出川沙路西约50米,121.68319812472,31.276267606886,1,死亡事故
3101156201500149,川展路南六公路东约1米,121.69863826091,31.166288309823,1,死亡事故
3101129201500057,莲花南路金都路北约5米,121.43259484165,31.081472209725,1,伤人事故
3101173201500089,大叶公路进济众路东约10米,121.59655683496,30.985723321869,1,伤人事故
3101012201500012,西藏南路大林路东约0米,121.4930915029,31.21642618118,1,死亡事故
3101049201500016,龙吴路出景联路(西)北约200米,121.44619318565,31.106158240385,1,伤人事故
3101155201500118,成山路华鹏路西北约3米,121.53205319754,31.181860759069,1,死亡事故
3101010201500007,金陵东路出广西南路西约30米,121.49356208743,31.235851967684,1,死亡事故
3101158201500045,台儿庄路出长岛路南约200米,121.59846922948,31.266252466283,1,死亡事故
3101139201500014,月罗公路进罗东路西约100米,121.38641646955,31.423061074741,1,死亡事故
3101186201500096,华青路进新达路南约20米,121.1367823153,31.171798625555,1,死亡事故
3101137201500080,市一东路进潘泾路西约250米,121.36495303322,31.424879902706,1,伤人事故
3101169201500028,金山大道进杭州湾大道东约1米,121.33477007499,30.741352403679,1,死亡事故
3101139201500067,富锦路潘泾路东约1米,121.39507487255,31.396027814705,1,伤人事故
3101138201500096,沪太支路进守仁桥街西约300米,121.43037814435,31.298858109633,1,伤人事故
3102300201500043,草港公路出永前二号路西约20米,121.57746468084,31.622725551125,1,死亡事故
3101175201500085,塔闵公路出松卫北路西约300米,121.26878319953,31.035166099497,1,伤人事故
3101079201500037,延长西路进宜川路东约60米,121.4406009383,31.266157973022,1,死亡事故
3101139201500088,铁山路进铁通路南约300米,121.46576970251,31.3865431053,1,死亡事故
3101155201500127,洲海路华东路西南约3米,121.63123874075,31.322774583562,1,死亡事故
3101019201500013,复兴中路陕西南路西约0米,121.47123808699,31.22086188007,1,伤人事故
3101097201500016,长阳路出舟山路东约5米,121.53942685568,31.2749637239,1,死亡事故
3101153201500115,杨高北路港城路东约1米,121.61092404224,31.315188632619,1,死亡事故
3101171201500095,泗砖路进长施公路南约150米,121.29100122237,31.101728570268,1,伤人事故
3101155201500148,浦明路商城路东北约5米,121.52085413504,31.222625108725,1,死亡事故
3101151201500081,高科西路出杨高南路北约200米,121.5311245356,31.19354495918,1,死亡事故
3101184201500088,白石公路进新胜路西约600米,121.10836464327,31.26325941637,1,死亡事故
3101017201500010,鲁班路出南塘浜路南约250米,121.48342111203,31.203981185437,1,死亡事故
